CFOSAT                  
1 43662U 18083A   21301.12788781  .00000969  00000-0  53309-4 0  9998
2 43662  97.4428 323.4597 0001900  87.8935 357.3156 15.16387836165954
